{
  "type": "FeatureCollection",
  "features": [
    {
      "type": "Feature",
      "properties": {
        "norad_id": 30162,
        "name": "FENGYUN 1C DEB",
        "group": "fengyun-1c-debris",
        "lat": -3.137725599542545,
        "lon": -124.83328759263323,
        "alt_km": 1216.6292515543937,
        "timestamp": "2025-12-26T03:50:12.367598+00:00",
        "meta_object_name": "FENGYUN 1C DEB",
        "meta_object_id": "1999-025TT",
        "meta_epoch": "2025-12-25T16:52:19.617312",
        "meta_mean_motion": 13.53456149,
        "meta_eccentricity": 0.0314228,
        "meta_inclination": 99.4874,
        "meta_ra_of_asc_node": 55.2535,
        "meta_arg_of_pericenter": 316.7272,
        "meta_mean_anomaly": 164.1607,
        "meta_ephemeris_type": 0,
        "meta_classification_type": "U",
        "meta_norad_cat_id": 30162,
        "meta_element_set_no": 999,
        "meta_rev_at_epoch": 92836,
        "meta_bstar": 0.0026213,
        "meta_mean_motion_dot": 2.364e-05,
        "meta_mean_motion_ddot": 0,
        "tle_line1": "1 30162U 99025TT  25359.70300483  .00002364  00000+0  26213-2 0  9996",
        "tle_line2": "2 30162  99.4874  55.2535 0314228 316.7272 164.1607 13.53456149928362"
      },
      "geometry": {
        "type": "Point",
        "coordinates": [
          -124.83328759263323,
          -3.137725599542545
        ]
      }
    },
    {
      "type": "Feature",
      "properties": {
        "norad_id": 30163,
        "name": "FENGYUN 1C DEB",
        "group": "fengyun-1c-debris",
        "lat": -32.04451245093967,
        "lon": -72.13230728957231,
        "alt_km": 846.4799247537667,
        "timestamp": "2025-12-26T03:50:12.367608+00:00",
        "meta_object_name": "FENGYUN 1C DEB",
        "meta_object_id": "1999-025TU",
        "meta_epoch": "2025-12-25T18:36:18.061056",
        "meta_mean_motion": 13.38821668,
        "meta_eccentricity": 0.0374125,
        "meta_inclination": 98.7014,
        "meta_ra_of_asc_node": 113.0377,
        "meta_arg_of_pericenter": 199.8281,
        "meta_mean_anomaly": 318.576,
        "meta_ephemeris_type": 0,
        "meta_classification_type": "U",
        "meta_norad_cat_id": 30163,
        "meta_element_set_no": 999,
        "meta_rev_at_epoch": 92119,
        "meta_bstar": 0.0020615,
        "meta_mean_motion_dot": 1.619e-05,
        "meta_mean_motion_ddot": 0,
        "tle_line1": "1 30163U 99025TU  25359.77520904  .00001619  00000+0  20615-2 0  9998",
        "tle_line2": "2 30163  98.7014 113.0377 0374125 199.8281 318.5760 13.38821668921194"
      },
      "geometry": {
        "type": "Point",
        "coordinates": [
          -72.13230728957231,
          -32.04451245093967
        ]
      }
    },
    {
      "type": "Feature",
      "properties": {
        "norad_id": 30167,
        "name": "FENGYUN 1C DEB",
        "group": "fengyun-1c-debris",
        "lat": 53.376429974177206,
        "lon": 73.89436104155772,
        "alt_km": 672.9194326668048,
        "timestamp": "2025-12-26T03:50:12.367619+00:00",
        "meta_object_name": "FENGYUN 1C DEB",
        "meta_object_id": "1999-025TY",
        "meta_epoch": "2025-12-25T19:52:35.113152",
        "meta_mean_motion": 14.48589682,
        "meta_eccentricity": 0.0144329,
        "meta_inclination": 98.9671,
        "meta_ra_of_asc_node": 85.807,
        "meta_arg_of_pericenter": 115.4821,
        "meta_mean_anomaly": 11.651,
        "meta_ephemeris_type": 0,
        "meta_classification_type": "U",
        "meta_norad_cat_id": 30167,
        "meta_element_set_no": 999,
        "meta_rev_at_epoch": 99548,
        "meta_bstar": 0.00043264,
        "meta_mean_motion_dot": 1.801e-05,
        "meta_mean_motion_ddot": 0,
        "tle_line1": "1 30167U 99025TY  25359.82818418  .00001801  00000+0  43264-3 0  9997",
        "tle_line2": "2 30167  98.9671  85.8070 0144329 115.4821  11.6510 14.48589682995486"
      },
      "geometry": {
        "type": "Point",
        "coordinates": [
          73.89436104155772,
          53.376429974177206
        ]
      }
    },
    {
      "type": "Feature",
      "properties": {
        "norad_id": 30168,
        "name": "FENGYUN 1C DEB",
        "group": "fengyun-1c-debris",
        "lat": -24.09755267894583,
        "lon": 74.27317170638784,
        "alt_km": 772.4062336851375,
        "timestamp": "2025-12-26T03:50:12.367629+00:00",
        "meta_object_name": "FENGYUN 1C DEB",
        "meta_object_id": "1999-025TZ",
        "meta_epoch": "2025-12-25T18:02:00.919392",
        "meta_mean_motion": 14.53066862,
        "meta_eccentricity": 0.0100302,
        "meta_inclination": 97.3885,
        "meta_ra_of_asc_node": 70.5858,
        "meta_arg_of_pericenter": 113.5401,
        "meta_mean_anomaly": 247.6373,
        "meta_ephemeris_type": 0,
        "meta_classification_type": "U",
        "meta_norad_cat_id": 30168,
        "meta_element_set_no": 999,
        "meta_rev_at_epoch": 98500,
        "meta_bstar": 0.0017552,
        "meta_mean_motion_dot": 7.717e-05,
        "meta_mean_motion_ddot": 0,
        "tle_line1": "1 30168U 99025TZ  25359.75139953  .00007717  00000+0  17552-2 0  9992",
        "tle_line2": "2 30168  97.3885  70.5858 0100302 113.5401 247.6373 14.53066862985009"
      },
      "geometry": {
        "type": "Point",
        "coordinates": [
          74.27317170638784,
          -24.09755267894583
        ]
      }
    },
    {
      "type": "Feature",
      "properties": {
        "norad_id": 30169,
        "name": "FENGYUN 1C DEB",
        "group": "fengyun-1c-debris",
        "lat": 50.7292615920832,
        "lon": 59.3434168286833,
        "alt_km": 796.2562499684964,
        "timestamp": "2025-12-26T03:50:12.367639+00:00",
        "meta_object_name": "FENGYUN 1C DEB",
        "meta_object_id": "1999-025UA",
        "meta_epoch": "2025-12-25T16:38:53.470752",
        "meta_mean_motion": 14.58488941,
        "meta_eccentricity": 0.0212726,
        "meta_inclination": 98.3343,
        "meta_ra_of_asc_node": 69.2039,
        "meta_arg_of_pericenter": 187.0173,
        "meta_mean_anomaly": 299.9755,
        "meta_ephemeris_type": 0,
        "meta_classification_type": "U",
        "meta_norad_cat_id": 30169,
        "meta_element_set_no": 999,
        "meta_rev_at_epoch": 97912,
        "meta_bstar": 0.0028206,
        "meta_mean_motion_dot": 0.0001792,
        "meta_mean_motion_ddot": 0,
        "tle_line1": "1 30169U 99025UA  25359.69367443  .00017920  00000+0  28206-2 0  9998",
        "tle_line2": "2 30169  98.3343  69.2039 0212726 187.0173 299.9755 14.58488941979123"
      },
      "geometry": {
        "type": "Point",
        "coordinates": [
          59.3434168286833,
          50.7292615920832
        ]
      }
    },
    {
      "type": "Feature",
      "properties": {
        "norad_id": 30170,
        "name": "FENGYUN 1C DEB",
        "group": "fengyun-1c-debris",
        "lat": 35.302898932771946,
        "lon": 173.0955456534587,
        "alt_km": 892.56361527232,
        "timestamp": "2025-12-26T03:50:12.367650+00:00",
        "meta_object_name": "FENGYUN 1C DEB",
        "meta_object_id": "1999-025UB",
        "meta_epoch": "2025-12-24T17:41:37.231872",
        "meta_mean_motion": 14.00320749,
        "meta_eccentricity": 0.00774163,
        "meta_inclination": 98.8497,
        "meta_ra_of_asc_node": 345.3849,
        "meta_arg_of_pericenter": 240.8838,
        "meta_mean_anomaly": 296.3748,
        "meta_ephemeris_type": 0,
        "meta_classification_type": "U",
        "meta_norad_cat_id": 30170,
        "meta_element_set_no": 999,
        "meta_rev_at_epoch": 96583,
        "meta_bstar": 0.00028409724,
        "meta_mean_motion_dot": 3.88e-06,
        "meta_mean_motion_ddot": 0,
        "tle_line1": "1 30170U 99025UB  25358.73723648  .00000388  00000+0  28410-3 0  9995",
        "tle_line2": "2 30170  98.8497 345.3849 0077416 240.8838 296.3748 14.00320749965832"
      },
      "geometry": {
        "type": "Point",
        "coordinates": [
          173.0955456534587,
          35.302898932771946
        ]
      }
    },
    {
      "type": "Feature",
      "properties": {
        "norad_id": 30171,
        "name": "FENGYUN 1C DEB",
        "group": "fengyun-1c-debris",
        "lat": -18.878746184790238,
        "lon": 33.82026651672072,
        "alt_km": 793.594050771464,
        "timestamp": "2025-12-26T03:50:12.367660+00:00",
        "meta_object_name": "FENGYUN 1C DEB",
        "meta_object_id": "1999-025UC",
        "meta_epoch": "2025-12-25T13:07:17.305248",
        "meta_mean_motion": 13.96870738,
        "meta_eccentricity": 0.0184303,
        "meta_inclination": 98.3976,
        "meta_ra_of_asc_node": 216.1553,
        "meta_arg_of_pericenter": 231.4045,
        "meta_mean_anomaly": 127.049,
        "meta_ephemeris_type": 0,
        "meta_classification_type": "U",
        "meta_norad_cat_id": 30171,
        "meta_element_set_no": 999,
        "meta_rev_at_epoch": 96449,
        "meta_bstar": 0.0002957,
        "meta_mean_motion_dot": 4.35e-06,
        "meta_mean_motion_ddot": 0,
        "tle_line1": "1 30171U 99025UC  25359.54672807  .00000435  00000+0  29570-3 0  9997",
        "tle_line2": "2 30171  98.3976 216.1553 0184303 231.4045 127.0490 13.96870738964494"
      },
      "geometry": {
        "type": "Point",
        "coordinates": [
          33.82026651672072,
          -18.878746184790238
        ]
      }
    }
  ]
}